{
"type": "FeatureCollection",
"name": "addresses",
"crs": { "type": "name", "properties": { "name": "urn:ogc:def:crs:OGC:1.3:CRS84" } },
"features": [
{ "type": "Feature", "properties": { "osm_id": 255316007, "amenity": "restaurant", "addr:housenumber": "118", "name": "The Sole Proprietor", "website": "https:\/\/www.thesole.com\/", "cuisine": "seafood", "opening_hours": "Tu-Th 11:30-22:00; Su 16:00-21:00; Mo 11:30-21:00; Fr 11:30-23:00; Sa 16:00-23:00", "phone": "508-798-3474", "addr:postcode": "01609", "addr:street": "Highland Street", "addr:city": null, "addr:state": null, "source_url": null, "massgis:school_id": null, "grades": null, "type": null }, "geometry": { "type": "Point", "coordinates": [ -71.807338, 42.2712179 ] } },
{ "type": "Feature", "properties": { "osm_id": 255316287, "amenity": "restaurant", "addr:housenumber": "107", "name": "Thai Time", "website": "http:\/\/www.thaitimeworcester.com", "cuisine": "thai", "opening_hours": "Mo-Fr 11:00-21:00; Sa-Su 12:00-21:00", "phone": "5087567267", "addr:postcode": "01609", "addr:street": "Highland Street", "addr:city": null, "addr:state": null, "source_url": null, "massgis:school_id": null, "grades": null, "type": null }, "geometry": { "type": "Point", "coordinates": [ -71.8068378, 42.2709876 ] } },
{ "type": "Feature", "properties": { "osm_id": 1310685818, "amenity": "restaurant", "addr:housenumber": "93", "name": "Boomers Sub & Deli", "website": null, "cuisine": "sandwich;pizza", "opening_hours": null, "phone": null, "addr:postcode": "01609", "addr:street": "Highland Street", "addr:city": "Worcester", "addr:state": "MA", "source_url": null, "massgis:school_id": null, "grades": null, "type": null }, "geometry": { "type": "Point", "coordinates": [ -71.8057208, 42.2709567 ] } },
{ "type": "Feature", "properties": { "osm_id": 2714516032, "amenity": "restaurant", "addr:housenumber": "106", "name": "Northworks Bar & Grille", "website": null, "cuisine": "american", "opening_hours": "Mo-Th 11:30-23:30; Fr 11:30-00:30; Sa 16:00-00:30; Su 16:00-21:00", "phone": null, "addr:postcode": "01605", "addr:street": "Grove Street", "addr:city": "Worcester", "addr:state": null, "source_url": null, "massgis:school_id": null, "grades": null, "type": null }, "geometry": { "type": "Point", "coordinates": [ -71.8012177, 42.2764752 ] } },
{ "type": "Feature", "properties": { "osm_id": 257494723, "amenity": "fire_station", "addr:housenumber": "141", "name": "Worcester Fire Department", "website": null, "cuisine": null, "opening_hours": null, "phone": null, "addr:postcode": "01605", "addr:street": "Grove Street", "addr:city": "Worcester", "addr:state": "MA", "source_url": "http:\/\/mass.gov\/mgis\/firestations.htm", "massgis:school_id": null, "grades": null, "type": null }, "geometry": { "type": "Point", "coordinates": [ -71.8034659, 42.2777393 ] } },
{ "type": "Feature", "properties": { "osm_id": 257579393, "amenity": "school", "addr:housenumber": "85", "name": "Ma Academy for Math and Science School", "website": null, "cuisine": null, "opening_hours": null, "phone": "508-831-5859", "addr:postcode": "01605", "addr:street": "Prescott Street", "addr:city": "Worcester", "addr:state": "MA", "source_url": "http:\/\/mass.gov\/mgis\/schools.htm", "massgis:school_id": "04680505", "grades": "11,12", "type": "Public" }, "geometry": { "type": "Point", "coordinates": [ -71.7999251, 42.2764079 ] } }
]
}
